start=new Date('%Y-%m-27T00:00:00.000Z').valueOf();
sats=[{"MEAN_MOTION_DOT":"0.00000993","REV_AT_EPOCH":"2238","RCS_SIZE":"LARGE","MEAN_ELEMENT_THEORY":"SGP4","FILE":"3101032","CENTER_NAME":"EARTH","REF_FRAME":"TEME","BSTAR":"0.00008557700000","EPOCH":"2021-08-21T21:35:16.362816","OBJECT_TYPE":"PAYLOAD","EPHEMERIS_TYPE":"0","LAUNCH_DATE":"2021-04-07","ECCENTRICITY":"0.00016010","SITE":"AFETR","SEMIMAJOR_AXIS":"6925.348","NORAD_CAT_ID":"48150","ELEMENT_SET_NO":"999","DECAY_DATE":null,"TLE_LINE2":"2 48150  53.0764  47.0953 0001601 105.4820 254.6346 15.06400323 22380","ARG_OF_PERICENTER":"105.4820","TIME_SYSTEM":"UTC","CLASSIFICATION_TYPE":"U","PERIAPSIS":"546.104","INCLINATION":"53.0764","OBJECT_NAME":"STARLINK-2493","MEAN_MOTION":"15.06400323","GP_ID":"183214735","PERIOD":"95.592","APOAPSIS":"548.321","OBJECT_ID":"2021-027BL","TLE_LINE1":"1 48150U 21027BL  21233.89949494  .00000993  00000-0  85577-4 0  9994","RA_OF_ASC_NODE":"47.0953","COUNTRY_CODE":"US","MEAN_ANOMALY":"254.6346","MEAN_MOTION_DDOT":"0.0000000000000"},{"ELEMENT_SET_NO":"999","NORAD_CAT_ID":"48151","SEMIMAJOR_AXIS":"6925.360","SITE":"AFETR","LAUNCH_DATE":"2021-04-07","ECCENTRICITY":"0.00018990","DECAY_DATE":null,"ARG_OF_PERICENTER":"101.3976","TLE_LINE2":"2 48151  53.0725  47.1006 0001899 101.3976 258.7226 15.06396119 22383","MEAN_ELEMENT_THEORY":"SGP4","RCS_SIZE":"LARGE","REV_AT_EPOCH":"2238","MEAN_MOTION_DOT":"0.00000695","CENTER_NAME":"EARTH","FILE":"3101032","BSTAR":"0.00006553700000","REF_FRAME":"TEME","EPHEMERIS_TYPE":"0","OBJECT_TYPE":"PAYLOAD","EPOCH":"2021-08-21T21:40:34.646592","OBJECT_ID":"2021-027BM","PERIOD":"95.592","APOAPSIS":"548.541","GP_ID":"183214484","RA_OF_ASC_NODE":"47.1006","TLE_LINE1":"1 48151U 21027BM  21233.90317878  .00000695  00000-0  65537-4 0  9995","MEAN_MOTION_DDOT":"0.0000000000000","MEAN_ANOMALY":"258.7226","COUNTRY_CODE":"US","CLASSIFICATION_TYPE":"U","TIME_SYSTEM":"UTC","INCLINATION":"53.0725","PERIAPSIS":"545.910","MEAN_MOTION":"15.06396119","OBJECT_NAME":"STARLINK-2503"},{"GP_ID":"183213500","APOAPSIS":"352.064","PERIOD":"91.530","OBJECT_ID":"2021-036A","COUNTRY_CODE":"US","MEAN_MOTION_DDOT":"0.0000000000000","MEAN_ANOMALY":"287.1418","TLE_LINE1":"1 48276U 21036A   21233.91668981 -.00125694  00000-0 -90156-3 0  9991","RA_OF_ASC_NODE":"318.8135","TIME_SYSTEM":"UTC","CLASSIFICATION_TYPE":"U","OBJECT_NAME":"STARLINK-2567","MEAN_MOTION":"15.73261868","PERIAPSIS":"347.103","INCLINATION":"53.0516","ECCENTRICITY":"0.00036870","LAUNCH_DATE":"2021-04-29","SITE":"AFETR","SEMIMAJOR_AXIS":"6727.719","NORAD_CAT_ID":"48276","ELEMENT_SET_NO":"999","TLE_LINE2":"2 48276  53.0516 318.8135 0003687   7.0726 287.1418 15.73261868  3690","ARG_OF_PERICENTER":"7.0726","DECAY_DATE":null,"FILE":"3101032","CENTER_NAME":"EARTH","MEAN_MOTION_DOT":"-0.00125694","REV_AT_EPOCH":"369","RCS_SIZE":"LARGE","MEAN_ELEMENT_THEORY":"SGP4","EPOCH":"2021-08-21T22:00:01.999584","OBJECT_TYPE":"PAYLOAD","EPHEMERIS_TYPE":"0","REF_FRAME":"TEME","BSTAR":"-0.00090156000000"},{"TIME_SYSTEM":"UTC","CLASSIFICATION_TYPE":"U","INCLINATION":"53.0517","PERIAPSIS":"347.426","OBJECT_NAME":"STARLINK-2569","MEAN_MOTION":"15.73236858","PERIOD":"91.531","APOAPSIS":"351.885","GP_ID":"183214249","OBJECT_ID":"2021-036B","TLE_LINE1":"1 48277U 21036B   21233.91668981 -.00112424  00000-0 -80560-3 0  9997","RA_OF_ASC_NODE":"318.8132","COUNTRY_CODE":"US","MEAN_ANOMALY":"287.6133","MEAN_MOTION_DDOT":"0.0000000000000","REV_AT_EPOCH":"369","MEAN_MOTION_DOT":"-0.00112424","MEAN_ELEMENT_THEORY":"SGP4","RCS_SIZE":"LARGE","FILE":"3101032","CENTER_NAME":"EARTH","REF_FRAME":"TEME","BSTAR":"-0.00080560000000","OBJECT_TYPE":"PAYLOAD","EPOCH":"2021-08-21T22:00:01.999584","EPHEMERIS_TYPE":"0","SITE":"AFETR","ECCENTRICITY":"0.00033140","LAUNCH_DATE":"2021-04-29","ELEMENT_SET_NO":"999","NORAD_CAT_ID":"48277","SEMIMAJOR_AXIS":"6727.790","DECAY_DATE":null,"ARG_OF_PERICENTER":"7.2193","TLE_LINE2":"2 48277  53.0517 318.8132 0003314   7.2193 287.6133 15.73236858  3696"},{"OBJECT_ID":"2021-036C","APOAPSIS":"352.082","PERIOD":"91.531","GP_ID":"183214999","RA_OF_ASC_NODE":"318.8108","TLE_LINE1":"1 48278U 21036C   21233.91668981 -.00111989  00000-0 -80233-3 0  9990","MEAN_ANOMALY":"287.4699","MEAN_MOTION_DDOT":"0.0000000000000","COUNTRY_CODE":"US","CLASSIFICATION_TYPE":"U","TIME_SYSTEM":"UTC","INCLINATION":"53.0517","PERIAPSIS":"347.224","MEAN_MOTION":"15.73237654","OBJECT_NAME":"STARLINK-2543","ELEMENT_SET_NO":"999","NORAD_CAT_ID":"48278","SEMIMAJOR_AXIS":"6727.788","SITE":"AFETR","LAUNCH_DATE":"2021-04-29","ECCENTRICITY":"0.00036100","DECAY_DATE":null,"ARG_OF_PERICENTER":"8.0016","TLE_LINE2":"2 48278  53.0517 318.8108 0003610   8.0016 287.4699 15.73237654  3692","MEAN_ELEMENT_THEORY":"SGP4","RCS_SIZE":"LARGE","REV_AT_EPOCH":"369","MEAN_MOTION_DOT":"-0.00111989","CENTER_NAME":"EARTH","FILE":"3101032","BSTAR":"-0.00080233000000","REF_FRAME":"TEME","EPHEMERIS_TYPE":"0","OBJECT_TYPE":"PAYLOAD","EPOCH":"2021-08-21T22:00:01.999584"},{"MEAN_MOTION_DOT":"-0.00043223","REV_AT_EPOCH":"369","RCS_SIZE":"LARGE","MEAN_ELEMENT_THEORY":"SGP4","FILE":"3101032","CENTER_NAME":"EARTH","REF_FRAME":"TEME","BSTAR":"-0.00030466000000","EPOCH":"2021-08-21T22:00:01.999584","OBJECT_TYPE":"PAYLOAD","EPHEMERIS_TYPE":"0","LAUNCH_DATE":"2021-04-29","ECCENTRICITY":"0.00030890","SITE":"AFETR","SEMIMAJOR_AXIS":"6727.830","NORAD_CAT_ID":"48279","ELEMENT_SET_NO":"999","DECAY_DATE":null,"TLE_LINE2":"2 48279  53.0516 318.8095 0003089  12.5106 283.5491 15.73222939  3694","ARG_OF_PERICENTER":"12.5106","TIME_SYSTEM":"UTC","CLASSIFICATION_TYPE":"U","PERIAPSIS":"347.617","INCLINATION":"53.0516","OBJECT_NAME":"STARLINK-2580","MEAN_MOTION":"15.73222939","GP_ID":"183215237","APOAPSIS":"351.773","PERIOD":"91.532","OBJECT_ID":"2021-036D","TLE_LINE1":"1 48279U 21036D   21233.91668981 -.00043223  00000-0 -30466-3 0  9999","RA_OF_ASC_NODE":"318.8095","COUNTRY_CODE":"US","MEAN_ANOMALY":"283.5491","MEAN_MOTION_DDOT":"0.0000000000000"},{"MEAN_MOTION":"15.06392975","OBJECT_NAME":"STARLINK-2565","PERIAPSIS":"546.502","INCLINATION":"53.0561","CLASSIFICATION_TYPE":"U","TIME_SYSTEM":"UTC","MEAN_MOTION_DDOT":"0.0000000000000","MEAN_ANOMALY":"231.3946","COUNTRY_CODE":"US","RA_OF_ASC_NODE":"352.4651","TLE_LINE1":"1 48280U 21036E   21233.83637113 -.00000798  00000-0 -34699-4 0  9998","OBJECT_ID":"2021-036E","GP_ID":"183214001","PERIOD":"95.593","APOAPSIS":"547.968","EPHEMERIS_TYPE":"0","EPOCH":"2021-08-21T20:04:22.465632","OBJECT_TYPE":"PAYLOAD","BSTAR":"-0.00003469900000","REF_FRAME":"TEME","CENTER_NAME":"EARTH","FILE":"3101032","RCS_SIZE":"LARGE","MEAN_ELEMENT_THEORY":"SGP4","MEAN_MOTION_DOT":"-0.00000798","REV_AT_EPOCH":"1777","TLE_LINE2":"2 48280  53.0561 352.4651 0001058 128.7138 231.3946 15.06392975 17771","ARG_OF_PERICENTER":"128.7138","DECAY_DATE":null,"SEMIMAJOR_AXIS":"6925.370","NORAD_CAT_ID":"48280","ELEMENT_SET_NO":"999","LAUNCH_DATE":"2021-04-29","ECCENTRICITY":"0.00010580","SITE":"AFETR"},{"TIME_SYSTEM":"UTC","CLASSIFICATION_TYPE":"U","OBJECT_NAME":"STARLINK-2520","MEAN_MOTION":"15.06412156","INCLINATION":"53.0535","PERIAPSIS":"546.300","APOAPSIS":"548.053","PERIOD":"95.591","GP_ID":"183214750","OBJECT_ID":"2021-036F","COUNTRY_CODE":"US","MEAN_MOTION_DDOT":"0.0000000000000","MEAN_ANOMALY":"287.5731","TLE_LINE1":"1 48281U 21036F   21233.91668981 -.00036443  00000-0 -24394-2 0  9990","RA_OF_ASC_NODE":"332.1060","FILE":"3101032","CENTER_NAME":"EARTH","REV_AT_EPOCH":"360","MEAN_MOTION_DOT":"-0.00036443","MEAN_ELEMENT_THEORY":"SGP4","RCS_SIZE":"LARGE","OBJECT_TYPE":"PAYLOAD","EPOCH":"2021-08-21T22:00:01.999584","EPHEMERIS_TYPE":"0","REF_FRAME":"TEME","BSTAR":"-0.00243940000000","SITE":"AFETR","LAUNCH_DATE":"2021-04-29","ECCENTRICITY":"0.00012660","ELEMENT_SET_NO":"999","SEMIMAJOR_AXIS":"6925.311","NORAD_CAT_ID":"48281","ARG_OF_PERICENTER":"78.3461","TLE_LINE2":"2 48281  53.0535 332.1060 0001266  78.3461 287.5731 15.06412156  3608","DECAY_DATE":null},{"BSTAR":"-0.00222280000000","REF_FRAME":"TEME","EPHEMERIS_TYPE":"0","OBJECT_TYPE":"PAYLOAD","EPOCH":"2021-08-21T22:00:01.999584","MEAN_ELEMENT_THEORY":"SGP4","RCS_SIZE":"LARGE","REV_AT_EPOCH":"359","MEAN_MOTION_DOT":"-0.00033247","CENTER_NAME":"EARTH","FILE":"3101032","DECAY_DATE":null,"ARG_OF_PERICENTER":"102.1570","TLE_LINE2":"2 48282  53.0615 337.0701 0001122 102.1570 136.2302 15.06413028  3593","ELEMENT_SET_NO":"999","NORAD_CAT_ID":"48282","SEMIMAJOR_AXIS":"6925.309","SITE":"AFETR","LAUNCH_DATE":"2021-04-29","ECCENTRICITY":"0.00011220","INCLINATION":"53.0615","PERIAPSIS":"546.397","MEAN_MOTION":"15.06413028","OBJECT_NAME":"STARLINK-2558","CLASSIFICATION_TYPE":"U","TIME_SYSTEM":"UTC","RA_OF_ASC_NODE":"337.0701","TLE_LINE1":"1 48282U 21036G   21233.91668981 -.00033247  00000-0 -22228-2 0  9994","MEAN_MOTION_DDOT":"0.0000000000000","MEAN_ANOMALY":"136.2302","COUNTRY_CODE":"US","OBJECT_ID":"2021-036G","APOAPSIS":"547.951","PERIOD":"95.591","GP_ID":"183214499"},{"DECAY_DATE":null,"TLE_LINE2":"2 48283  53.0708 337.0383 0001069  84.2645 174.1941 15.06401543  3595","ARG_OF_PERICENTER":"84.2645","LAUNCH_DATE":"2021-04-29","ECCENTRICITY":"0.00010690","SITE":"AFETR","SEMIMAJOR_AXIS":"6925.344","NORAD_CAT_ID":"48283","ELEMENT_SET_NO":"999","REF_FRAME":"TEME","BSTAR":"-0.00229850000000","EPOCH":"2021-08-21T22:00:01.999584","OBJECT_TYPE":"PAYLOAD","EPHEMERIS_TYPE":"0","MEAN_MOTION_DOT":"-0.00034354","REV_AT_EPOCH":"359","RCS_SIZE":"LARGE","MEAN_ELEMENT_THEORY":"SGP4","FILE":"3101032","CENTER_NAME":"EARTH","TLE_LINE1":"1 48283U 21036H   21233.91668981 -.00034354  00000-0 -22985-2 0  9995","RA_OF_ASC_NODE":"337.0383","COUNTRY_CODE":"US","MEAN_MOTION_DDOT":"0.0000000000000","MEAN_ANOMALY":"174.1941","GP_ID":"183215591","APOAPSIS":"547.949","PERIOD":"95.592","OBJECT_ID":"2021-036H","PERIAPSIS":"546.469","INCLINATION":"53.0708","OBJECT_NAME":"STARLINK-2516","MEAN_MOTION":"15.06401543","TIME_SYSTEM":"UTC","CLASSIFICATION_TYPE":"U"}];
